[{"OBJECT_NAME":"KUIPER-00020","OBJECT_ID":"2025-088M","EPOCH":"2026-03-09T07:33:05.565600","MEAN_MOTION":14.79999577,"ECCENTRICITY":0.00065612,"INCLINATION":51.9003,"RA_OF_ASC_NODE":104.7471,"ARG_OF_PERICENTER":80.9967,"MEAN_ANOMALY":279.1738,"EPHEMERIS_TYPE":0,"CLASSIFICATION_TYPE":"U","NORAD_CAT_ID":63735,"ELEMENT_SET_NO":999,"REV_AT_EPOCH":4760,"BSTAR":0.00067043352,"MEAN_MOTION_DOT":4.902e-5,"MEAN_MOTION_DDOT":0},{"OBJECT_NAME":"IRIDIUM 33 DEB","OBJECT_ID":"1997-051JH","EPOCH":"2026-03-09T13:15:18.671616","MEAN_MOTION":14.77407981,"ECCENTRICITY":0.00147749,"INCLINATION":86.306,"RA_OF_ASC_NODE":267.8432,"ARG_OF_PERICENTER":223.6239,"MEAN_ANOMALY":189.8815,"EPHEMERIS_TYPE":0,"CLASSIFICATION_TYPE":"U","NORAD_CAT_ID":34540,"ELEMENT_SET_NO":999,"REV_AT_EPOCH":90302,"BSTAR":0.0014657078,"MEAN_MOTION_DOT":0.00010475,"MEAN_MOTION_DDOT":0}]
